GLOBALSTAR M023         
1 25621U 99004A   25257.96554368 -.00000038  00000+0  36653-3 0  9992
2 25621  52.0098 140.0644 0010003 329.0918  44.4763 12.62506216227074
GLOBALSTAR M040         
1 25622U 99004B   25258.08365718 -.00000081  00000+0  12696-3 0  9995
2 25622  51.9909 143.9924 0000214 164.0769 339.9075 12.62016966226605
GLOBALSTAR M036         
1 25623U 99004C   25258.24875328 -.00000045  00000+0  54501-3 0  9998
2 25623  52.0004   2.9362 0010652 220.4387 157.6243 11.86608542189673
GLOBALSTAR M038         
1 25624U 99004D   25258.21659640 -.00000079  00000+0  12908-3 0  9995
2 25624  51.9966 172.2966 0001178 246.9670 278.4167 12.32532064213471
GLOBALSTAR M022         
1 25649U 99012A   25258.12092375 -.00000119  00000+0 -38150-3 0  9990
2 25649  52.0055  46.4172 0002564  10.2365 161.6036 12.02502551187195
GLOBALSTAR M041         
1 25650U 99012B   25258.09279521 -.00000100  00000+0 -19463-3 0  9994
2 25650  52.0020 290.6924 0001573 131.6612 228.4359 11.96682766189044
GLOBALSTAR M046         
1 25651U 99012C   25258.25608334 -.00000056  00000+0  35531-3 0  9994
2 25651  52.0092 352.8998 0002530  83.5470 302.3975 12.09413487194563
GLOBALSTAR M037         
1 25652U 99012D   25258.19266998 -.00000054  00000+0  27830-3 0  9995
2 25652  51.9990 269.9598 0002160  31.7165  13.2612 12.62451229222640
